[{"OBJECT_NAME":"UHETSAT","OBJECT_ID":"2023-185E","EPOCH":"2026-03-09T22:39:26.455680","MEAN_MOTION":15.29797662,"ECCENTRICITY":0.00118435,"INCLINATION":97.3584,"RA_OF_ASC_NODE":137.3576,"ARG_OF_PERICENTER":307.7346,"MEAN_ANOMALY":52.2821,"EPHEMERIS_TYPE":0,"CLASSIFICATION_TYPE":"U","NORAD_CAT_ID":58466,"ELEMENT_SET_NO":999,"REV_AT_EPOCH":12611,"BSTAR":0.00030513019,"MEAN_MOTION_DOT":8.749e-5,"MEAN_MOTION_DDOT":0},{"OBJECT_NAME":"STARLINK-32411","OBJECT_ID":"2024-184R","EPOCH":"2026-03-09T03:36:16.176672","MEAN_MOTION":15.30192458,"ECCENTRICITY":9.965e-5,"INCLINATION":53.1624,"RA_OF_ASC_NODE":16.5001,"ARG_OF_PERICENTER":82.5308,"MEAN_ANOMALY":277.5806,"EPHEMERIS_TYPE":0,"CLASSIFICATION_TYPE":"U","NORAD_CAT_ID":61547,"ELEMENT_SET_NO":999,"REV_AT_EPOCH":7842,"BSTAR":2.19918e-7,"MEAN_MOTION_DOT":-3.52e-6,"MEAN_MOTION_DDOT":0}]
